     2.100          NAVIGATION                              RINEX VERSION / TYPE
novaRinex v2.1 9/07 ARL:UT/GPSTk        08/22/2016 16:20:43 PGM / RUN BY / DATE
Created by GPSTK program novaRinex v2.1 9/072016/08/22 16:20COMMENT
                                                            END OF HEADER
16 16  4  2 16  0  0.0 -.274027697742D-04  .284217094304D-11  .000000000000D+00
     .300000000000D+01  .675937500000D+02  .389480509141D-08 -.108773216336D+01
     .347942113876D-05  .873516115826D-02  .899471342564D-05  .515373628044D+04
     .576000000000D+06 -.160187482834D-06  .309349214560D+01 -.819563865662D-07
     .991110498450D+00  .223250000000D+03  .352910101814D+00 -.764174688086D-08
     .250367571671D-09  .100000000000D+01  .189000000000D+04  .000000000000D+00
     .240000000000D+01  .000000000000D+00 -.102445483208D-07  .300000000000D+01
     .569616000000D+06  .400000000000D+01
26 16  4  2 16  0  0.0 -.316387508065D-03 -.139834810398D-10  .000000000000D+00
     .300000000000D+01  .670937500000D+02  .456376152756D-08 -.316960417302D+00
     .352226197720D-05  .992985907942D-03  .844523310661D-05  .515373858261D+04
     .576000000000D+06 -.521540641785D-07  .301649975309D+01 -.149011611938D-07
     .960834512031D+00  .217562500000D+03  .697624480117D-01 -.807533637017D-08
     .197151069276D-09  .100000000000D+01  .189000000000D+04  .000000000000D+00
     .240000000000D+01  .000000000000D+00  .698491930962D-08  .300000000000D+01
     .570036000000D+06  .400000000000D+01
 4 16  4  2 16  0  0.0 -.253738835454D-03 -.795807864051D-12  .000000000000D+00
     .300000000000D+01  .673437500000D+02  .531379276937D-08 -.933663185951D+00
     .342354178429D-05  .835991196800D-02  .878423452377D-05  .515363225365D+04
     .576000000000D+06 -.147148966789D-06  .304588015131D+01 -.167638063431D-06
     .983625230865D+00  .222093750000D+03  .865195217094D+00 -.777460955798D-08
     .213223167315D-09  .100000000000D+01  .189000000000D+04  .000000000000D+00
     .485000000000D+01  .630000000000D+02 -.190921127796D-07  .300000000000D+01
     .570036000000D+06  .400000000000D+01
26 16  4  2 16  0  0.0 -.316387508065D-03 -.139834810398D-10  .000000000000D+00
     .300000000000D+01  .670937500000D+02  .456376152756D-08 -.316960417302D+00
     .352226197720D-05  .992985907942D-03  .844523310661D-05  .515373858261D+04
     .576000000000D+06 -.521540641785D-07  .301649975309D+01 -.149011611938D-07
     .960834512031D+00  .217562500000D+03  .697624480117D-01 -.807533637017D-08
     .197151069276D-09  .100000000000D+01  .189000000000D+04  .000000000000D+00
     .240000000000D+01  .000000000000D+00  .698491930962D-08  .300000000000D+01
     .570066000000D+06  .400000000000D+01
 4 16  4  2 16  0  0.0 -.253738835454D-03 -.795807864051D-12  .000000000000D+00
     .300000000000D+01  .673437500000D+02  .531379276937D-08 -.933663185951D+00
     .342354178429D-05  .835991196800D-02  .878423452377D-05  .515363225365D+04
     .576000000000D+06 -.147148966789D-06  .304588015131D+01 -.167638063431D-06
     .983625230865D+00  .222093750000D+03  .865195217094D+00 -.777460955798D-08
     .213223167315D-09  .100000000000D+01  .189000000000D+04  .000000000000D+00
     .485000000000D+01  .630000000000D+02 -.190921127796D-07  .300000000000D+01
     .570066000000D+06  .400000000000D+01
26 16  4  2 16  0  0.0 -.316387508065D-03 -.139834810398D-10  .000000000000D+00
     .300000000000D+01  .670937500000D+02  .456376152756D-08 -.316960417302D+00
     .352226197720D-05  .992985907942D-03  .844523310661D-05  .515373858261D+04
     .576000000000D+06 -.521540641785D-07  .301649975309D+01 -.149011611938D-07
     .960834512031D+00  .217562500000D+03  .697624480117D-01 -.807533637017D-08
     .197151069276D-09  .100000000000D+01  .189000000000D+04  .000000000000D+00
     .240000000000D+01  .000000000000D+00  .698491930962D-08  .300000000000D+01
     .570096000000D+06  .400000000000D+01
 4 16  4  2 16  0  0.0 -.253738835454D-03 -.795807864051D-12  .000000000000D+00
     .300000000000D+01  .673437500000D+02  .531379276937D-08 -.933663185951D+00
     .342354178429D-05  .835991196800D-02  .878423452377D-05  .515363225365D+04
     .576000000000D+06 -.147148966789D-06  .304588015131D+01 -.167638063431D-06
     .983625230865D+00  .222093750000D+03  .865195217094D+00 -.777460955798D-08
     .213223167315D-09  .100000000000D+01  .189000000000D+04  .000000000000D+00
     .485000000000D+01  .630000000000D+02 -.190921127796D-07  .300000000000D+01
     .570096000000D+06  .400000000000D+01
26 16  4  2 16  0  0.0 -.316387508065D-03 -.139834810398D-10  .000000000000D+00
     .300000000000D+01  .670937500000D+02  .456376152756D-08 -.316960417302D+00
     .352226197720D-05  .992985907942D-03  .844523310661D-05  .515373858261D+04
     .576000000000D+06 -.521540641785D-07  .301649975309D+01 -.149011611938D-07
     .960834512031D+00  .217562500000D+03  .697624480117D-01 -.807533637017D-08
     .197151069276D-09  .100000000000D+01  .189000000000D+04  .000000000000D+00
     .240000000000D+01  .000000000000D+00  .698491930962D-08  .300000000000D+01
     .570126000000D+06  .400000000000D+01
 4 16  4  2 16  0  0.0 -.253738835454D-03 -.795807864051D-12  .000000000000D+00
     .300000000000D+01  .673437500000D+02  .531379276937D-08 -.933663185951D+00
     .342354178429D-05  .835991196800D-02  .878423452377D-05  .515363225365D+04
     .576000000000D+06 -.147148966789D-06  .304588015131D+01 -.167638063431D-06
     .983625230865D+00  .222093750000D+03  .865195217094D+00 -.777460955798D-08
     .213223167315D-09  .100000000000D+01  .189000000000D+04  .000000000000D+00
     .485000000000D+01  .630000000000D+02 -.190921127796D-07  .300000000000D+01
     .570126000000D+06  .400000000000D+01
26 16  4  2 16  0  0.0 -.316387508065D-03 -.139834810398D-10  .000000000000D+00
     .300000000000D+01  .670937500000D+02  .456376152756D-08 -.316960417302D+00
     .352226197720D-05  .992985907942D-03  .844523310661D-05  .515373858261D+04
     .576000000000D+06 -.521540641785D-07  .301649975309D+01 -.149011611938D-07
     .960834512031D+00  .217562500000D+03  .697624480117D-01 -.807533637017D-08
     .197151069276D-09  .100000000000D+01  .189000000000D+04  .000000000000D+00
     .240000000000D+01  .000000000000D+00  .698491930962D-08  .300000000000D+01
     .570156000000D+06  .400000000000D+01
 4 16  4  2 16  0  0.0 -.253738835454D-03 -.795807864051D-12  .000000000000D+00
     .300000000000D+01  .673437500000D+02  .531379276937D-08 -.933663185951D+00
     .342354178429D-05  .835991196800D-02  .878423452377D-05  .515363225365D+04
     .576000000000D+06 -.147148966789D-06  .304588015131D+01 -.167638063431D-06
     .983625230865D+00  .222093750000D+03  .865195217094D+00 -.777460955798D-08
     .213223167315D-09  .100000000000D+01  .189000000000D+04  .000000000000D+00
     .485000000000D+01  .630000000000D+02 -.190921127796D-07  .300000000000D+01
     .570156000000D+06  .400000000000D+01
26 16  4  2 16  0  0.0 -.316387508065D-03 -.139834810398D-10  .000000000000D+00
     .300000000000D+01  .670937500000D+02  .456376152756D-08 -.316960417302D+00
     .352226197720D-05  .992985907942D-03  .844523310661D-05  .515373858261D+04
     .576000000000D+06 -.521540641785D-07  .301649975309D+01 -.149011611938D-07
     .960834512031D+00  .217562500000D+03  .697624480117D-01 -.807533637017D-08
     .197151069276D-09  .100000000000D+01  .189000000000D+04  .000000000000D+00
     .240000000000D+01  .000000000000D+00  .698491930962D-08  .300000000000D+01
     .570186000000D+06  .400000000000D+01
 4 16  4  2 16  0  0.0 -.253738835454D-03 -.795807864051D-12  .000000000000D+00
     .300000000000D+01  .673437500000D+02  .531379276937D-08 -.933663185951D+00
     .342354178429D-05  .835991196800D-02  .878423452377D-05  .515363225365D+04
     .576000000000D+06 -.147148966789D-06  .304588015131D+01 -.167638063431D-06
     .983625230865D+00  .222093750000D+03  .865195217094D+00 -.777460955798D-08
     .213223167315D-09  .100000000000D+01  .189000000000D+04  .000000000000D+00
     .485000000000D+01  .630000000000D+02 -.190921127796D-07  .300000000000D+01
     .570186000000D+06  .400000000000D+01
26 16  4  2 16  0  0.0 -.316387508065D-03 -.139834810398D-10  .000000000000D+00
     .300000000000D+01  .670937500000D+02  .456376152756D-08 -.316960417302D+00
     .352226197720D-05  .992985907942D-03  .844523310661D-05  .515373858261D+04
     .576000000000D+06 -.521540641785D-07  .301649975309D+01 -.149011611938D-07
     .960834512031D+00  .217562500000D+03  .697624480117D-01 -.807533637017D-08
     .197151069276D-09  .100000000000D+01  .189000000000D+04  .000000000000D+00
     .240000000000D+01  .000000000000D+00  .698491930962D-08  .300000000000D+01
     .570216000000D+06  .400000000000D+01
 4 16  4  2 16  0  0.0 -.253738835454D-03 -.795807864051D-12  .000000000000D+00
     .300000000000D+01  .673437500000D+02  .531379276937D-08 -.933663185951D+00
     .342354178429D-05  .835991196800D-02  .878423452377D-05  .515363225365D+04
     .576000000000D+06 -.147148966789D-06  .304588015131D+01 -.167638063431D-06
     .983625230865D+00  .222093750000D+03  .865195217094D+00 -.777460955798D-08
     .213223167315D-09  .100000000000D+01  .189000000000D+04  .000000000000D+00
     .485000000000D+01  .630000000000D+02 -.190921127796D-07  .300000000000D+01
     .570216000000D+06  .400000000000D+01
30 16  4  2 16  0  0.0  .113004352897D-03  .363797880709D-11  .000000000000D+00
     .300000000000D+01  .581250000000D+01  .473019703169D-08  .157586043863D+01
     .689178705215D-07  .185403181240D-02  .991486012936D-05  .515362170982D+04
     .576000000000D+06  .614672899246D-07  .204492510071D+01 -.502914190292D-07
     .952540268303D+00  .185937500000D+03  .297859255253D+01 -.813605318499D-08
    -.277511559470D-09  .100000000000D+01  .189000000000D+04  .000000000000D+00
     .240000000000D+01  .000000000000D+00  .325962901115D-08  .300000000000D+01
     .570246000000D+06  .400000000000D+01
